[{"OBJECT_NAME":"STARLINK-2574","OBJECT_ID":"2021-038AU","EPOCH":"2026-03-09T22:10:14.098656","MEAN_MOTION":15.30176927,"ECCENTRICITY":0.00012629,"INCLINATION":53.1604,"RA_OF_ASC_NODE":333.8477,"ARG_OF_PERICENTER":111.0392,"MEAN_ANOMALY":249.0744,"EPHEMERIS_TYPE":0,"CLASSIFICATION_TYPE":"U","NORAD_CAT_ID":48395,"ELEMENT_SET_NO":999,"REV_AT_EPOCH":26866,"BSTAR":0.00012701602,"MEAN_MOTION_DOT":3.402e-5,"MEAN_MOTION_DDOT":0},{"OBJECT_NAME":"ION SCV-004","OBJECT_ID":"2022-002K","EPOCH":"2026-03-09T16:32:03.244416","MEAN_MOTION":15.29369331,"ECCENTRICITY":0.00072157,"INCLINATION":97.2961,"RA_OF_ASC_NODE":128.2294,"ARG_OF_PERICENTER":1.6783,"MEAN_ANOMALY":358.448,"EPHEMERIS_TYPE":0,"CLASSIFICATION_TYPE":"U","NORAD_CAT_ID":50993,"ELEMENT_SET_NO":999,"REV_AT_EPOCH":23008,"BSTAR":0.00023198467,"MEAN_MOTION_DOT":6.538e-5,"MEAN_MOTION_DDOT":0}]
